COSMOS 2251 DEB         
1 34276U 93036LW  26064.96842240  .00002836  00000+0  62384-3 0  9990
2 34276  74.0217 287.0023 0021081  49.8085  67.7858 14.57837613898059
COSMOS 2251 DEB         
1 34297U 93036MT  26065.62424890  .00000449  00000+0  16111-3 0  9999
2 34297  74.0479 130.1939 0017303 187.3663 325.1220 14.36711279892692
COSMOS 2251 DEB         
1 34301U 93036MX  26065.27638568  .00042512  00000+0  43935-2 0  9995
2 34301  74.0057 359.9741 0004918  49.8598 102.8071 14.89902092896421
COSMOS 2251 DEB         
1 34302U 93036MY  26065.50015207  .00002987  00000+0  92590-3 0  9995
2 34302  74.1806 330.2462 0078453 162.6613 252.3173 14.39809024889268
COSMOS 2251 DEB         
1 34303U 93036MZ  26065.62494590  .00007133  00000+0  14431-2 0  9990
2 34303  74.0040 128.8780 0137869 247.9246 270.3189 14.55609543891822
COSMOS 2251 DEB         
1 34304U 93036NA  26065.18257999  .00004058  00000+0  12154-2 0  9995
2 34304  74.0151 328.5770 0125940  86.7792  34.2395 14.38616103884960
COSMOS 2251 DEB         
1 34307U 93036ND  26065.34444625  .00000811  00000+0  74508-3 0  9995
2 34307  74.0539 178.9476 0392688 351.4221  68.9766 13.54473516839947
COSMOS 2251 DEB         
1 34313U 93036NK  26065.22931603  .00338705  00000+0  62620-2 0  9993
2 34313  73.9622 126.8803 0021804 293.5096  66.3823 15.47493903903423
COSMOS 2251 DEB         
1 34314U 93036NL  26065.41157514  .00001607  00000+0  75947-3 0  9991
2 34314  74.0059 159.0382 0105605 246.6474 232.7404 14.17656769878434
COSMOS 2251 DEB         
1 34316U 93036NN  26064.96669463  .00027105  00000+0  23987-2 0  9990
2 34316  74.0648 169.6403 0012400 265.7712  94.2056 14.96122830904526
COSMOS 2251 DEB         
1 34317U 93036NP  26065.53555002  .00000971  00000+0  83205-3 0  9990
2 34317  73.9213 257.7829 0336570 231.4262 160.4085 13.65251109847634
COSMOS 2251 DEB         
1 34321U 93036NT  26065.53886118  .00002743  00000+0  70720-3 0  9997
2 34321  74.0320 358.8626 0013754 112.9078  62.0830 14.50481151897011
COSMOS 2251 DEB         
1 34323U 93036NV  26064.74315015  .00015944  00000+0  21919-2 0  9996
2 34323  73.9534 319.8611 0055196 342.8199  80.2829 14.77258612896644
COSMOS 2251 DEB         
1 34325U 93036NX  26065.34719218  .00004497  00000+0  23957-2 0  9993
2 34325  73.8713  45.4313 0188875  46.3547  66.7255 14.04938922866894
COSMOS 2251 DEB         
1 34327U 93036NZ  26065.28102309  .00013778  00000+0  13553-2 0  9998
2 34327  73.9966   4.1658 0032404 165.9090 345.7884 14.91736348907526
COSMOS 2251 DEB         
1 34340U 93036PN  26065.62495550  .00002815  00000+0  19998-2 0  9993
2 34340  74.0790 167.8307 0289273 256.8836 166.3847 13.79887046854256
