[{"OBJECT_NAME":"COSMOS 2251 DEB","OBJECT_ID":"1993-036LW","EPOCH":"2026-03-05T23:14:31.695360","MEAN_MOTION":14.57837613,"ECCENTRICITY":0.00210819,"INCLINATION":74.0217,"RA_OF_ASC_NODE":287.0023,"ARG_OF_PERICENTER":49.8085,"MEAN_ANOMALY":67.7858,"EPHEMERIS_TYPE":0,"CLASSIFICATION_TYPE":"U","NORAD_CAT_ID":34276,"ELEMENT_SET_NO":999,"REV_AT_EPOCH":89805,"BSTAR":0.00062383757,"MEAN_MOTION_DOT":2.836e-5,"MEAN_MOTION_DDOT":0},{"OBJECT_NAME":"COSMOS 2251 DEB","OBJECT_ID":"1993-036MT","EPOCH":"2026-03-06T14:58:55.104960","MEAN_MOTION":14.36711279,"ECCENTRICITY":0.00173033,"INCLINATION":74.0479,"RA_OF_ASC_NODE":130.1939,"ARG_OF_PERICENTER":187.3663,"MEAN_ANOMALY":325.122,"EPHEMERIS_TYPE":0,"CLASSIFICATION_TYPE":"U","NORAD_CAT_ID":34297,"ELEMENT_SET_NO":999,"REV_AT_EPOCH":89269,"BSTAR":0.00016110512,"MEAN_MOTION_DOT":4.49e-6,"MEAN_MOTION_DDOT":0},{"OBJECT_NAME":"COSMOS 2251 DEB","OBJECT_ID":"1993-036MX","EPOCH":"2026-03-06T06:37:59.722752","MEAN_MOTION":14.89902092,"ECCENTRICITY":0.00049186,"INCLINATION":74.0057,"RA_OF_ASC_NODE":359.9741,"ARG_OF_PERICENTER":49.8598,"MEAN_ANOMALY":102.8071,"EPHEMERIS_TYPE":0,"CLASSIFICATION_TYPE":"U","NORAD_CAT_ID":34301,"ELEMENT_SET_NO":999,"REV_AT_EPOCH":89642,"BSTAR":0.0043935048,"MEAN_MOTION_DOT":0.00042512,"MEAN_MOTION_DDOT":0},{"OBJECT_NAME":"COSMOS 2251 DEB","OBJECT_ID":"1993-036MY","EPOCH":"2026-03-06T12:00:13.138848","MEAN_MOTION":14.39809024,"ECCENTRICITY":0.00784535,"INCLINATION":74.1806,"RA_OF_ASC_NODE":330.2462,"ARG_OF_PERICENTER":162.6613,"MEAN_ANOMALY":252.3173,"EPHEMERIS_TYPE":0,"CLASSIFICATION_TYPE":"U","NORAD_CAT_ID":34302,"ELEMENT_SET_NO":999,"REV_AT_EPOCH":88926,"BSTAR":0.00092589841,"MEAN_MOTION_DOT":2.987e-5,"MEAN_MOTION_DDOT":0},{"OBJECT_NAME":"COSMOS 2251 DEB","OBJECT_ID":"1993-036MZ","EPOCH":"2026-03-06T14:59:55.325760","MEAN_MOTION":14.55609543,"ECCENTRICITY":0.01378697,"INCLINATION":74.004,"RA_OF_ASC_NODE":128.878,"ARG_OF_PERICENTER":247.9246,"MEAN_ANOMALY":270.3189,"EPHEMERIS_TYPE":0,"CLASSIFICATION_TYPE":"U","NORAD_CAT_ID":34303,"ELEMENT_SET_NO":999,"REV_AT_EPOCH":89182,"BSTAR":0.0014431004,"MEAN_MOTION_DOT":7.133e-5,"MEAN_MOTION_DDOT":0},{"OBJECT_NAME":"COSMOS 2251 DEB","OBJECT_ID":"1993-036NA","EPOCH":"2026-03-06T04:22:54.911136","MEAN_MOTION":14.38616103,"ECCENTRICITY":0.01259403,"INCLINATION":74.0151,"RA_OF_ASC_NODE":328.577,"ARG_OF_PERICENTER":86.7792,"MEAN_ANOMALY":34.2395,"EPHEMERIS_TYPE":0,"CLASSIFICATION_TYPE":"U","NORAD_CAT_ID":34304,"ELEMENT_SET_NO":999,"REV_AT_EPOCH":88496,"BSTAR":0.0012153635,"MEAN_MOTION_DOT":4.058e-5,"MEAN_MOTION_DDOT":0},{"OBJECT_NAME":"COSMOS 2251 DEB","OBJECT_ID":"1993-036ND","EPOCH":"2026-03-06T08:16:00.156000","MEAN_MOTION":13.54473516,"ECCENTRICITY":0.03926889,"INCLINATION":74.0539,"RA_OF_ASC_NODE":178.9476,"ARG_OF_PERICENTER":351.4221,"MEAN_ANOMALY":68.9766,"EPHEMERIS_TYPE":0,"CLASSIFICATION_TYPE":"U","NORAD_CAT_ID":34307,"ELEMENT_SET_NO":999,"REV_AT_EPOCH":83994,"BSTAR":0.00074508429,"MEAN_MOTION_DOT":8.11e-6,"MEAN_MOTION_DDOT":0},{"OBJECT_NAME":"COSMOS 2251 DEB","OBJECT_ID":"1993-036NK","EPOCH":"2026-03-06T05:30:12.904992","MEAN_MOTION":15.47493903,"ECCENTRICITY":0.00218047,"INCLINATION":73.9622,"RA_OF_ASC_NODE":126.8803,"ARG_OF_PERICENTER":293.5096,"MEAN_ANOMALY":66.3823,"EPHEMERIS_TYPE":0,"CLASSIFICATION_TYPE":"U","NORAD_CAT_ID":34313,"ELEMENT_SET_NO":999,"REV_AT_EPOCH":90342,"BSTAR":0.0062620111,"MEAN_MOTION_DOT":0.00338705,"MEAN_MOTION_DDOT":0},{"OBJECT_NAME":"COSMOS 2251 DEB","OBJECT_ID":"1993-036NL","EPOCH":"2026-03-06T09:52:40.092096","MEAN_MOTION":14.17656769,"ECCENTRICITY":0.01056051,"INCLINATION":74.0059,"RA_OF_ASC_NODE":159.0382,"ARG_OF_PERICENTER":246.6474,"MEAN_ANOMALY":232.7404,"EPHEMERIS_TYPE":0,"CLASSIFICATION_TYPE":"U","NORAD_CAT_ID":34314,"ELEMENT_SET_NO":999,"REV_AT_EPOCH":87843,"BSTAR":0.00075947447,"MEAN_MOTION_DOT":1.607e-5,"MEAN_MOTION_DDOT":0},{"OBJECT_NAME":"COSMOS 2251 DEB","OBJECT_ID":"1993-036NN","EPOCH":"2026-03-05T23:12:02.416032","MEAN_MOTION":14.9612283,"ECCENTRICITY":0.00124002,"INCLINATION":74.0648,"RA_OF_ASC_NODE":169.6403,"ARG_OF_PERICENTER":265.7712,"MEAN_ANOMALY":94.2056,"EPHEMERIS_TYPE":0,"CLASSIFICATION_TYPE":"U","NORAD_CAT_ID":34316,"ELEMENT_SET_NO":999,"REV_AT_EPOCH":90452,"BSTAR":0.0023987452,"MEAN_MOTION_DOT":0.00027105,"MEAN_MOTION_DDOT":0},{"OBJECT_NAME":"COSMOS 2251 DEB","OBJECT_ID":"1993-036NP","EPOCH":"2026-03-06T12:51:11.521728","MEAN_MOTION":13.65251109,"ECCENTRICITY":0.03365701,"INCLINATION":73.9213,"RA_OF_ASC_NODE":257.7829,"ARG_OF_PERICENTER":231.4262,"MEAN_ANOMALY":160.4085,"EPHEMERIS_TYPE":0,"CLASSIFICATION_TYPE":"U","NORAD_CAT_ID":34317,"ELEMENT_SET_NO":999,"REV_AT_EPOCH":84763,"BSTAR":0.00083204688,"MEAN_MOTION_DOT":9.71e-6,"MEAN_MOTION_DDOT":0},{"OBJECT_NAME":"COSMOS 2251 DEB","OBJECT_ID":"1993-036NT","EPOCH":"2026-03-06T12:55:57.605952","MEAN_MOTION":14.50481151,"ECCENTRICITY":0.0013754,"INCLINATION":74.032,"RA_OF_ASC_NODE":358.8626,"ARG_OF_PERICENTER":112.9078,"MEAN_ANOMALY":62.083,"EPHEMERIS_TYPE":0,"CLASSIFICATION_TYPE":"U","NORAD_CAT_ID":34321,"ELEMENT_SET_NO":999,"REV_AT_EPOCH":89701,"BSTAR":0.0007071974,"MEAN_MOTION_DOT":2.743e-5,"MEAN_MOTION_DDOT":0},{"OBJECT_NAME":"COSMOS 2251 DEB","OBJECT_ID":"1993-036NV","EPOCH":"2026-03-05T17:50:08.172960","MEAN_MOTION":14.77258612,"ECCENTRICITY":0.0055196,"INCLINATION":73.9534,"RA_OF_ASC_NODE":319.8611,"ARG_OF_PERICENTER":342.8199,"MEAN_ANOMALY":80.2829,"EPHEMERIS_TYPE":0,"CLASSIFICATION_TYPE":"U","NORAD_CAT_ID":34323,"ELEMENT_SET_NO":999,"REV_AT_EPOCH":89664,"BSTAR":0.0021918574,"MEAN_MOTION_DOT":0.00015944,"MEAN_MOTION_DDOT":0},{"OBJECT_NAME":"COSMOS 2251 DEB","OBJECT_ID":"1993-036NX","EPOCH":"2026-03-06T08:19:57.404352","MEAN_MOTION":14.04938922,"ECCENTRICITY":0.01888755,"INCLINATION":73.8713,"RA_OF_ASC_NODE":45.4313,"ARG_OF_PERICENTER":46.3547,"MEAN_ANOMALY":66.7255,"EPHEMERIS_TYPE":0,"CLASSIFICATION_TYPE":"U","NORAD_CAT_ID":34325,"ELEMENT_SET_NO":999,"REV_AT_EPOCH":86689,"BSTAR":0.002395684,"MEAN_MOTION_DOT":4.497e-5,"MEAN_MOTION_DDOT":0},{"OBJECT_NAME":"COSMOS 2251 DEB","OBJECT_ID":"1993-036NZ","EPOCH":"2026-03-06T06:44:40.394976","MEAN_MOTION":14.91736348,"ECCENTRICITY":0.00324041,"INCLINATION":73.9966,"RA_OF_ASC_NODE":4.1658,"ARG_OF_PERICENTER":165.909,"MEAN_ANOMALY":345.7884,"EPHEMERIS_TYPE":0,"CLASSIFICATION_TYPE":"U","NORAD_CAT_ID":34327,"ELEMENT_SET_NO":999,"REV_AT_EPOCH":90752,"BSTAR":0.0013553187,"MEAN_MOTION_DOT":0.00013778,"MEAN_MOTION_DDOT":0},{"OBJECT_NAME":"COSMOS 2251 DEB","OBJECT_ID":"1993-036PN","EPOCH":"2026-03-06T14:59:56.155200","MEAN_MOTION":13.79887046,"ECCENTRICITY":0.02892731,"INCLINATION":74.079,"RA_OF_ASC_NODE":167.8307,"ARG_OF_PERICENTER":256.8836,"MEAN_ANOMALY":166.3847,"EPHEMERIS_TYPE":0,"CLASSIFICATION_TYPE":"U","NORAD_CAT_ID":34340,"ELEMENT_SET_NO":999,"REV_AT_EPOCH":85425,"BSTAR":0.0019998351,"MEAN_MOTION_DOT":2.815e-5,"MEAN_MOTION_DDOT":0}]
